NORAD_CAT_ID,OBJECT_NAME,OBJECT_TYPE,EPOCH,MEAN_MOTION,ECCENTRICITY,INCLINATION,RA_OF_ASC_NODE,ARG_OF_PERICENTER,MEAN_ANOMALY,BSTAR,MEAN_MOTION_DOT,MEAN_MOTION_DDOT,TLE_LINE0,TLE_LINE1,TLE_LINE2,SEMIMAJOR_AXIS,PERIOD,APOGEE,PERIGEE,DECAYED
49450.0,STARLINK-3127,PAYLOAD,2023-03-12 01:36:45,15.08832023,0.0001392,53.2167,88.5817,93.4184,266.6968,0.00043576,6.652e-05,0.0,0 STARLINK-3127,1 49450U 21104AU  23071.06719008  .00006652  00000-0  43576-3 0  9991,2 49450  53.2167  88.5817 0001392  93.4184 266.6968 15.08832023 74746,6917.905,95.438,540.733,538.807,0.0
49450.0,STARLINK-3127,PAYLOAD,2023-03-12 04:47:31,15.08836219,0.0001496,53.2172,87.9873,106.0487,254.067,0.0004211,6.419e-05,0.0,0 STARLINK-3127,1 49450U 21104AU  23071.19966917  .00006419  00000-0  42110-3 0  9992,2 49450  53.2172  87.9873 0001496 106.0487 254.0670 15.08836219 73953,6917.892,95.438,540.792,538.722,0.0
49450.0,STARLINK-3127,PAYLOAD,2023-03-12 12:44:26,15.08848586,0.0001679,53.2175,86.4999,115.7469,244.3696,0.00068039,0.0001056,0.0,0 STARLINK-3127,1 49450U 21104AU  23071.53086636  .00010560  00000-0  68039-3 0  9991,2 49450  53.2175  86.4999 0001679 115.7469 244.3696 15.08848586 74815,6917.854,95.437,540.881,538.558,0.0
49450.0,STARLINK-3127,PAYLOAD,2023-03-13 10:59:50,15.08846016,0.0001212,53.2179,82.3402,100.5432,259.5696,0.00017046,2.426e-05,0.0,0 STARLINK-3127,1 49450U 21104AU  23072.45822239  .00002426  00000-0  17046-3 0  9994,2 49450  53.2179  82.3402 0001212 100.5432 259.5696 15.08846016 74148,6917.862,95.437,540.565,538.889,0.0
49450.0,STARLINK-3127,PAYLOAD,2023-03-14 01:18:19,15.08827933,0.0001248,53.218,79.6643,91.978,268.1355,-0.00011664,-2.143e-05,0.0,0 STARLINK-3127,1 49450U 21104AU  23073.05439067 -.00002143  00000-0 -11664-3 0  9992,2 49450  53.2180  79.6643 0001248  91.9780 268.1355 15.08827933 75049,6917.917,95.438,540.646,538.919,0.0
49450.0,STARLINK-3127,PAYLOAD,2023-03-14 07:39:52,15.08827245,0.00012,53.2187,78.4751,92.9845,267.1285,5.824e-05,6.39e-06,0.0,0 STARLINK-3127,1 49450U 21104AU  23073.31935892  .00000639  00000-0  58240-4 0  9996,2 49450  53.2187  78.4751 0001200  92.9845 267.1285 15.08827245 74275,6917.919,95.438,540.615,538.954,0.0
49450.0,STARLINK-3127,PAYLOAD,2023-03-14 17:12:10,15.08844077,0.0001454,53.2199,76.6906,78.7888,281.3267,-7.35e-06,-4.05e-06,0.0,0 STARLINK-3127,1 49450U 21104AU  23073.71679108 -.00000405  00000-0 -73500-5 0  9995,2 49450  53.2199  76.6906 0001454  78.7888 281.3267 15.08844077 75147,6917.868,95.437,540.739,538.727,0.0
49450.0,STARLINK-3127,PAYLOAD,2023-03-15 04:19:51,15.08844782,0.0001243,53.2189,74.6096,79.4543,280.6589,0.00025278,3.738e-05,0.0,0 STARLINK-3127,1 49450U 21104AU  23074.18046008  .00003738  00000-0  25278-3 0  9991,2 49450  53.2189  74.6096 0001243  79.4543 280.6589 15.08844782 75216,6917.866,95.437,540.591,538.871,0.0
49450.0,STARLINK-3127,PAYLOAD,2023-03-15 12:16:47,15.08865147,0.0001308,53.218,73.1223,78.4198,281.6941,0.00062744,9.719e-05,0.0,0 STARLINK-3127,1 49450U 21104AU  23074.51165668  .00009719  00000-0  62744-3 0  9996,2 49450  53.2180  73.1223 0001308  78.4198 281.6941 15.08865147 74456,6917.804,95.436,540.573,538.764,0.0
49450.0,STARLINK-3127,PAYLOAD,2023-03-15 23:24:30,15.08831184,0.000118,53.2178,71.0409,72.5118,287.6003,-2.4322e-05,-6.75e-06,0.0,0 STARLINK-3127,1 49450U 21104AU  23074.97535301 -.00000675  00000-0 -24322-4 0  9996,2 49450  53.2178  71.0409 0001180  72.5118 287.6003 15.08831184 75338,6917.907,95.438,540.589,538.956,0.0
49450.0,STARLINK-3127,PAYLOAD,2023-03-16 07:21:25,15.08854959,0.0001287,53.2175,69.5543,96.168,263.9458,0.00064202,9.949e-05,0.0,0 STARLINK-3127,1 49450U 21104AU  23075.30654379  .00009949  00000-0  64202-3 0  9992,2 49450  53.2175  69.5543 0001287  96.1680 263.9458 15.08854959 75381,6917.835,95.437,540.59,538.809,0.0
49450.0,STARLINK-3127,PAYLOAD,2023-03-16 16:53:44,15.08837829,0.0001432,53.2172,67.7704,84.6314,275.4841,0.0004032,6.134e-05,0.0,0 STARLINK-3127,1 49450U 21104AU  23075.70398900  .00006134  00000-0  40320-3 0  9999,2 49450  53.2172  67.7704 0001432  84.6314 275.4841 15.08837829 75443,6917.887,95.438,540.743,538.761,0.0
49450.0,STARLINK-3127,PAYLOAD,2023-03-17 10:22:59,15.08846232,0.0001136,53.2176,64.4985,91.6802,268.4321,0.0008369,0.00013059,0.0,0 STARLINK-3127,1 49450U 21104AU  23076.43263181  .00013059  00000-0  83690-3 0  9993,2 49450  53.2176  64.4985 0001136  91.6802 268.4321 15.08846232 74748,6917.861,95.437,540.512,538.94,0.0
49450.0,STARLINK-3127,PAYLOAD,2023-03-17 16:44:32,15.08840292,0.000121,53.2179,63.3104,90.3944,269.7187,0.00075765,0.00011791,0.0,0 STARLINK-3127,1 49450U 21104AU  23076.69759429  .00011791  00000-0  75765-3 0  9991,2 49450  53.2179  63.3104 0001210  90.3944 269.7187 15.08840292 75596,6917.879,95.438,540.582,538.907,0.0
49450.0,STARLINK-3127,PAYLOAD,2023-03-18 10:13:46,15.08864227,0.0001373,53.2185,60.0384,90.8909,269.2241,0.00099912,0.00015659,0.0,0 STARLINK-3127,1 49450U 21104AU  23077.42622852  .00015659  00000-0  99912-3 0  9999,2 49450  53.2185  60.0384 0001373  90.8909 269.2241 15.08864227 74895,6917.806,95.436,540.621,538.722,0.0
49450.0,STARLINK-3127,PAYLOAD,2023-03-19 05:18:23,15.08856496,0.0001271,53.2185,56.4711,87.7167,272.3971,0.00064986,0.00010074,0.0,0 STARLINK-3127,1 49450U 21104AU  23078.22110783  .00010074  00000-0  64986-3 0  9992,2 49450  53.2185  56.4711 0001271  87.7167 272.3971 15.08856496 75824,6917.83,95.437,540.574,538.816,0.0
49450.0,STARLINK-3127,PAYLOAD,2023-03-19 10:04:32,15.08867053,0.0001224,53.2184,55.5782,88.1142,271.999,0.001106,0.00017371,0.0,0 STARLINK-3127,1 49450U 21104AU  23078.41982503  .00017371  00000-0  11060-2 0  9991,2 49450  53.2184  55.5782 0001224  88.1142 271.9990 15.08867053 75048,6917.798,95.436,540.509,538.816,0.0
49450.0,STARLINK-3127,PAYLOAD,2023-03-20 03:33:48,15.08842872,0.0001172,53.2179,52.3073,105.3683,254.7438,0.0014109,0.00022239,0.0,0 STARLINK-3127,1 49450U 21104AU  23079.14847249  .00022239  00000-0  14109-2 0  9995,2 49450  53.2179  52.3073 0001172 105.3683 254.7438 15.08842872 75963,6917.872,95.437,540.547,538.926,0.0
49450.0,STARLINK-3127,PAYLOAD,2023-03-20 08:19:57,15.08851586,0.000124,53.218,51.4152,104.2823,255.8306,0.0013091,0.00020614,0.0,0 STARLINK-3127,1 49450U 21104AU  23079.34719105  .00020614  00000-0  13091-2 0  9990,2 49450  53.2180  51.4152 0001240 104.2823 255.8306 15.08851586 75185,6917.845,95.437,540.568,538.852,0.0
49450.0,STARLINK-3127,PAYLOAD,2023-03-21 04:59:57,15.0886195,0.0001206,53.2182,47.5495,113.2542,246.8577,0.0014841,0.00023425,0.0,0 STARLINK-3127,1 49450U 21104AU  23080.20830982  .00023425  00000-0  14841-2 0  9991,2 49450  53.2182  47.5495 0001206 113.2542 246.8577 15.08861950 76124,6917.813,95.436,540.513,538.844,0.0
49450.0,STARLINK-3127,PAYLOAD,2023-03-21 06:35:20,15.08866055,0.000119,53.2182,47.2525,115.7994,244.3121,0.0016206,0.00025616,0.0,0 STARLINK-3127,1 49450U 21104AU  23080.27454841  .00025616  00000-0  16206-2 0  9995,2 49450  53.2182  47.2525 0001190 115.7994 244.3121 15.08866055 75325,6917.801,95.436,540.489,538.843,0.0
49450.0,STARLINK-3127,PAYLOAD,2023-03-22 04:50:45,15.08835846,0.0001202,53.2177,43.0888,134.4598,225.6493,0.00097373,0.00015241,0.0,0 STARLINK-3127,1 49450U 21104AU  23081.20191689  .00015241  00000-0  97373-3 0  9995,2 49450  53.2177  43.0888 0001202 134.4598 225.6493 15.08835846 76270,6917.893,95.438,540.59,538.927,0.0
49450.0,STARLINK-3127,PAYLOAD,2023-03-22 06:26:08,15.08833923,0.0001295,53.2179,42.7912,127.7642,232.3467,0.00038079,5.777e-05,0.0,0 STARLINK-3127,1 49450U 21104AU  23081.26815706  .00005777  00000-0  38079-3 0  9995,2 49450  53.2179  42.7912 0001295 127.7642 232.3467 15.08833923 76284,6917.899,95.438,540.66,538.868,0.0
49450.0,STARLINK-3127,PAYLOAD,2023-03-23 04:41:32,15.08852769,0.0001313,53.2182,38.6285,82.4531,277.661,0.0012284,0.00019323,0.0,0 STARLINK-3127,1 49450U 21104AU  23082.19551763  .00019323  00000-0  12284-2 0  9999,2 49450  53.2182  38.6285 0001313  82.4531 277.6610 15.08852769 75617,6917.841,95.437,540.615,538.798,0.0
49450.0,STARLINK-3127,PAYLOAD,2023-03-24 02:56:56,15.08860977,0.0001233,53.2179,34.4656,98.2115,261.9017,0.0010835,0.00017008,0.0,0 STARLINK-3127,1 49450U 21104AU  23083.12287539  .00017008  00000-0  10835-2 0  9998,2 49450  53.2179  34.4656 0001233  98.2115 261.9017 15.08860977 76565,6917.816,95.436,540.534,538.828,0.0
49450.0,STARLINK-3127,PAYLOAD,2023-03-24 06:07:42,15.08930707,0.0001279,53.2169,33.8683,94.9138,265.2001,0.0042817,0.0006869,0.0,0 STARLINK-3127,1 49450U 21104AU  23083.25534827  .00068690  00000-0  42817-2 0  9995,2 49450  53.2169  33.8683 0001279  94.9138 265.2001 15.08930707 76586,6917.603,95.432,540.353,538.583,0.0
49450.0,STARLINK-3127,PAYLOAD,2023-03-25 04:23:06,15.08857466,0.0001354,53.2176,29.7094,86.827,273.2877,0.0010246,0.00016064,0.0,0 STARLINK-3127,1 49450U 21104AU  23084.18270909  .00016064  00000-0  10246-2 0  9995,2 49450  53.2176  29.7094 0001354  86.8270 273.2877 15.08857466 76721,6917.827,95.436,540.629,538.755,0.0
49450.0,STARLINK-3127,PAYLOAD,2023-03-25 05:58:29,15.0885766,0.0001435,53.2175,29.4099,93.0364,267.0793,0.00097946,0.00015342,0.0,0 STARLINK-3127,1 49450U 21104AU  23084.24894842  .00015342  00000-0  97946-3 0  9991,2 49450  53.2175  29.4099 0001435  93.0364 267.0793 15.08857660 75921,6917.826,95.436,540.684,538.699,0.0
49450.0,STARLINK-3127,PAYLOAD,2023-03-26 02:38:30,15.08847516,0.0001419,53.2169,25.5448,76.8194,283.2956,7.3252e-05,8.78e-06,0.0,0 STARLINK-3127,1 49450U 21104AU  23085.11007528  .00000878  00000-0  73252-4 0  9998,2 49450  53.2169  25.5448 0001419  76.8194 283.2956 15.08847516 76865,6917.857,95.437,540.704,538.741,0.0
49450.0,STARLINK-3127,PAYLOAD,2023-03-27 02:29:18,15.08845787,0.0001343,53.2173,21.086,86.7814,273.3332,0.00079491,0.00012388,0.0,0 STARLINK-3127,1 49450U 21104AU  23086.10368073  .00012388  00000-0  79491-3 0  9992,2 49450  53.2173  21.0860 0001343  86.7814 273.3332 15.08845787 77018,6917.863,95.437,540.657,538.799,0.0
